LYNK TOWER 4            
1 55034U 23001AB  26068.67743801  .00009160  00000+0  30014-3 0  9997
2 55034  97.3324 128.5940 0010321 112.3386 247.8950 15.31819885176588
STARLINK-32100          
1 59686U 24086E   26068.00313034 -.00000087  00000+0  63737-5 0  9996
2 59686  43.0022  45.6665 0000962 250.5118 109.5630 15.27577555104219
